[{"OBJECT_NAME":"STARLINK-34086","OBJECT_ID":"2025-216A","EPOCH":"2026-03-09T22:41:19.344192","MEAN_MOTION":15.30189879,"ECCENTRICITY":0.00017658,"INCLINATION":53.1596,"RA_OF_ASC_NODE":331.6461,"ARG_OF_PERICENTER":139.2059,"MEAN_ANOMALY":220.9074,"EPHEMERIS_TYPE":0,"CLASSIFICATION_TYPE":"U","NORAD_CAT_ID":65734,"ELEMENT_SET_NO":999,"REV_AT_EPOCH":2660,"BSTAR":0.0009351833,"MEAN_MOTION_DOT":0.00027432,"MEAN_MOTION_DDOT":0},{"OBJECT_NAME":"SL-3 R\/B","OBJECT_ID":"1981-065B","EPOCH":"2026-03-09T21:58:16.284000","MEAN_MOTION":15.33300883,"ECCENTRICITY":0.00117648,"INCLINATION":97.6337,"RA_OF_ASC_NODE":111.1786,"ARG_OF_PERICENTER":10.529,"MEAN_ANOMALY":349.6196,"EPHEMERIS_TYPE":0,"CLASSIFICATION_TYPE":"U","NORAD_CAT_ID":12586,"ELEMENT_SET_NO":999,"REV_AT_EPOCH":43499,"BSTAR":0.00030084921,"MEAN_MOTION_DOT":9.62e-5,"MEAN_MOTION_DDOT":0}]
